{"type":"FeatureCollection", "features": [
{"type":"Feature","geometry":{"type":"Polygon","coordinates":[[[119.7783,16.0144],[119.8096,16.0505],[119.8581,16.096],[119.8863,16.1236],[119.88842661290323,16.128562096774196],[119.8887,16.1292],[119.8885,16.1348],[119.8814,16.1443],[119.87485406360425,16.148925795053],[119.87182142857144,16.15002857142857],[119.8448,16.1556],[119.8351,16.1542],[119.8256,16.1629],[119.8022,16.1767],[119.798,16.1839],[119.7816,16.1979],[119.763,16.2045],[119.7636,16.2022],[119.7581,16.1947],[119.76,16.1814],[119.7586,16.1772],[119.7533,16.1708],[119.7553,16.1686],[119.7539,16.1644],[119.7553,16.1636],[119.7583,16.1661],[119.7683,16.1658],[119.7714,16.1636],[119.7719,16.1608],[119.7692,16.1583],[119.7706,16.1456],[119.7746,16.1423],[119.7758,16.1325],[119.7775,16.1317],[119.7808,16.1342],[119.7817,16.1333],[119.7789,16.13],[119.7772,16.1219],[119.7733,16.1164],[119.7687,16.1154],[119.7656,16.1181],[119.762,16.1064],[119.7625,16.0997],[119.7675,16.0922],[119.7686,16.0867],[119.7638,16.0803],[119.7648,16.0703],[119.7576,16.057],[119.7555,16.0478],[119.7583,16.0402],[119.7667,16.0389],[119.7719,16.0339],[119.774,16.0247],[119.7733,16.0208],[119.7686,16.0181],[119.7642,16.0117],[119.7603,16.0128],[119.7651,16.0102],[119.7684,16.0098],[119.7783,16.0144]]]},"properties":{"MUNICIPALITY":"Agno"}},
{"type":"Feature","geometry":{"type":"Polygon","coordinates":[[[120.1829,15.7346],[120.2893,15.8387],[120.3072,15.8482],[120.3044,15.8522],[120.2961,15.8548],[120.2947,15.8627],[120.2789,15.8716],[120.26712337042922,15.884083227345027],[120.2639,15.8875],[120.2614,15.8924],[120.2603,15.9019],[120.2543,15.9081],[120.25074615384615,15.9059],[120.2501,15.9055],[120.24956666666667,15.9059],[120.2468,15.9059],[120.2325,15.8957],[120.2246,15.8959],[120.2157,15.8893],[120.2093,15.8812],[120.2029,15.8772],[120.202,15.8725],[120.1955,15.8626],[120.1962,15.8603],[120.1917,15.8561],[120.1919,15.8495],[120.1853,15.8402],[120.186,15.8202],[120.1849,15.813],[120.18429316837009,15.812204841312537],[120.18308473282443,15.8106213740458],[120.182,15.8092],[120.1651,15.7986],[120.1668,15.782],[120.1829,15.7346]]]},"properties":{"MUNICIPALITY":"Aguilar"}},
{"type":"Feature","geometry":{"type":"MultiPolygon","coordinates":[[[[119.8887,16.1292],[119.8992,16.1204],[119.9199,16.1119],[119.9269,16.1068],[119.9333,16.0974],[119.9354,16.0868],[119.9387,16.0806],[119.9587,16.0806],[119.965,16.0781],[119.9725,16.0726],[119.9948,16.095],[120.0365,16.1423],[120.0658,16.1728],[120.0656325620678,16.172851626695756],[120.0538,16.1765],[120.0525,16.1806],[120.0475,16.178],[120.0461,16.1797],[120.0495,16.1847],[120.0492,16.1872],[120.0478,16.1906],[120.0444,16.1925],[120.0456,16.1881],[120.0439,16.1853],[120.0408,16.1867],[120.0433,16.1836],[120.0397,16.1858],[120.0392,16.1839],[120.0364,16.1867],[120.0369,16.1894],[120.0397,16.1911],[120.0369,16.1911],[120.035,16.1889],[120.0314,16.1906],[120.0333,16.1856],[120.0325,16.1844],[120.0306,16.1864],[120.03,16.1919],[120.0294,16.1853],[120.0273,16.1813],[120.0289,16.1764],[120.0269,16.1739],[120.02,16.1683],[120.0181,16.1702],[120.0131,16.1711],[120.0111,16.1736],[120.0105,16.1813],[120.0081,16.1836],[120.0071,16.1895],[120.0037,16.1937],[120.0016,16.1934],[120,16.1958],[119.9963,16.1958],[119.9953,16.1994],[119.9894,16.2028],[119.9867,16.2017],[119.9858,16.1986],[119.9839,16.2028],[119.9797,16.2014],[119.9821,16.2042],[119.9794,16.2089],[119.9769,16.2106],[119.975,16.2061],[119.9755,16.21],[119.9711,16.2114],[119.9728,16.2147],[119.9807,16.2212],[119.9789,16.2246],[119.9726,16.2242],[119.9721,16.2261],[119.97,16.2267],[119.9687,16.2253],[119.9669,16.2272],[119.9686,16.2294],[119.9628,16.2317],[119.9611,16.22],[119.9578,16.2203],[119.9544,16.2367],[119.9478,16.2381],[119.9458,16.2369],[119.9433,16.2389],[119.936,16.24],[119.9339,16.2444],[119.9308,16.2442],[119.9277,16.25],[119.9262,16.2458],[119.9309,16.2372],[119.9401,16.2315],[119.9451,16.2327],[119.947,16.2252],[119.9415,16.217],[119.948,16.2131],[119.9484,16.2113],[119.9422,16.2096],[119.9408,16.2078],[119.8973,16.1378],[119.8887,16.1292]]],[[[120.0431,16.1956],[120.0408,16.1992],[120.0403,16.1967],[120.0419,16.1961],[120.0425,16.1933],[120.039,16.1874],[120.0436,16.1892],[120.0431,16.1956]]],[[[120.0414,16.1931],[120.0408,16.1944],[120.0394,16.1942],[120.04,16.1933],[120.0414,16.1931]]],[[[120.0344,16.2011],[120.0336,16.1998],[120.0325,16.2019],[120.0278,16.2003],[120.0317,16.1989],[120.0295,16.1955],[120.0328,16.1925],[120.035,16.1933],[120.0342,16.195],[120.0322,16.1944],[120.0333,16.1958],[120.0319,16.197],[120.0328,16.1978],[120.0342,16.1964],[120.0353,16.2],[120.0344,16.2011]]],[[[120.0367,16.2011],[120.0361,16.1994],[120.0375,16.1981],[120.0381,16.1989],[120.0367,16.2011]]],[[[120.0297,16.2033],[120.0303,16.2017],[120.0311,16.2056],[120.0303,16.205],[120.0297,16.2033]]],[[[120.0394,16.1925],[120.0353,16.1978],[120.0356,16.1928],[120.0403,16.1919],[120.0394,16.1925]]],[[[120.0402,16.2067],[120.0411,16.2083],[120.0372,16.2081],[120.0364,16.2064],[120.0397,16.2017],[120.0406,16.2025],[120.0383,16.2061],[120.0402,16.2067]]],[[[120.0433,16.2097],[120.0417,16.2114],[120.0381,16.2108],[120.0425,16.2092],[120.0433,16.2097]]],[[[120.0444,16.2131],[120.0458,16.2147],[120.0433,16.2172],[120.0411,16.2164],[120.0408,16.2139],[120.0389,16.2161],[120.0389,16.2125],[120.0419,16.2122],[120.0431,16.215],[120.0444,16.2131]]],[[[120.0014,16.2092],[120.0029,16.2112],[119.9939,16.2097],[119.9975,16.2081],[120.0014,16.2092]]],[[[120.0364,16.2133],[120.0372,16.2106],[120.038,16.216],[120.0347,16.2139],[120.0364,16.2133]]],[[[120.05,16.2193],[120.0497,16.2175],[120.0503,16.2169],[120.0514,16.2203],[120.05,16.2193]]],[[[120.0503,16.2226],[120.0495,16.2206],[120.0522,16.2236],[120.0511,16.2236],[120.0503,16.2226]]],[[[120.0481,16.2228],[120.0461,16.2239],[120.0456,16.2219],[120.0469,16.2211],[120.0481,16.2228]]]]},"properties":{"MUNICIPALITY":"Alaminos"}},
{"type":"Feature","geometry":{"type":"Polygon","coordinates":[[[120.49318014054892,15.832022526560426],[120.573,15.8323],[120.5799,15.8577],[120.56421497975707,15.865384075573555],[120.5577204570185,15.869578454842218],[120.553,15.8739],[120.55680419056021,15.879172474636087],[120.56698036608864,15.886416531791907],[120.56687224264707,15.886469852941177],[120.56656231306519,15.886622694926759],[120.55469451795841,15.883004833918445],[120.5303,15.8746],[120.5018,15.8662],[120.49158785038026,15.86376695949092],[120.4894,15.8631],[120.4947,15.8339],[120.49318014054892,15.832022526560426]]]},"properties":{"MUNICIPALITY":"Alcala"}},
{"type":"Feature","geometry":{"type":"MultiPolygon","coordinates":[[[[120.0153,16.2339],[120.0179,16.2408],[120.0173,16.2452],[120.0192,16.2522],[120.0119,16.2531],[120.0075,16.2586],[120.0042,16.2683],[119.9984,16.2737],[119.9982,16.2776],[120.0085,16.2968],[120.0111,16.2987],[120.0117,16.3027],[120.0219,16.3136],[120.0115,16.3142],[119.9994,16.3222],[119.9964,16.3289],[120.0006,16.3351],[120.0006,16.3383],[119.9897,16.3431],[119.9878,16.3381],[119.9847,16.3425],[119.9844,16.3442],[119.9875,16.3469],[119.9875,16.3442],[119.9897,16.3456],[119.9894,16.3506],[119.9811,16.3472],[119.9719,16.35],[119.9656,16.3439],[119.9667,16.3369],[119.9644,16.3306],[119.9656,16.3286],[119.9625,16.3228],[119.9586,16.32],[119.9597,16.3174],[119.9569,16.3106],[119.9592,16.3081],[119.9638,16.307],[119.9625,16.3047],[119.9578,16.3069],[119.9542,16.3108],[119.9467,16.3125],[119.9502,16.3166],[119.9523,16.3167],[119.9499,16.3176],[119.9497,16.3208],[119.9543,16.3236],[119.9519,16.3322],[119.9486,16.3328],[119.943,16.3304],[119.9436,16.3261],[119.9403,16.3211],[119.9392,16.3239],[119.9375,16.3228],[119.9389,16.3107],[119.9433,16.3097],[119.9402,16.3086],[119.9359,16.3127],[119.9292,16.3074],[119.9264,16.3078],[119.9253,16.3103],[119.9205,16.308],[119.9195,16.3026],[119.9178,16.3012],[119.9185,16.293],[119.9225,16.2903],[119.921,16.2879],[119.9227,16.2848],[119.9313,16.2911],[119.9335,16.2944],[119.9364,16.2954],[119.9389,16.2911],[119.9369,16.2881],[119.9375,16.2861],[119.9414,16.2842],[119.9453,16.2867],[119.9511,16.2819],[119.9558,16.2766],[119.9572,16.27],[119.9556,16.2678],[119.9525,16.2694],[119.9483,16.267],[119.9572,16.2626],[119.9585,16.2657],[119.9629,16.2664],[119.9625,16.2689],[119.9643,16.2681],[119.964,16.265],[119.9611,16.2637],[119.9621,16.261],[119.9745,16.2519],[119.9797,16.25],[119.9778,16.2456],[119.9808,16.2433],[119.9794,16.2408],[119.9887,16.2366],[119.9881,16.2269],[119.9923,16.2222],[119.999,16.2237],[120.0037,16.2287],[120.0117,16.2309],[120.0153,16.2339]]],[[[120.0264,16.3189],[120.0258,16.3209],[120.0244,16.3164],[120.0257,16.3175],[120.0264,16.3189]]],[[[119.9386,16.2678],[119.9369,16.2692],[119.9358,16.2683],[119.9372,16.2667],[119.9386,16.2678]]],[[[119.9889,16.3572],[119.9903,16.3556],[119.9892,16.3597],[119.9903,16.3635],[119.987,16.3614],[119.9889,16.3572]]],[[[119.9513,16.3399],[119.9495,16.3403],[119.9479,16.3445],[119.9436,16.3461],[119.9428,16.3403],[119.9459,16.3399],[119.9497,16.3369],[119.9518,16.3374],[119.9513,16.3399]]],[[[119.9437,16.3533],[119.9419,16.3553],[119.9408,16.3529],[119.9426,16.352],[119.9437,16.3533]]],[[[119.9631,16.3655],[119.9536,16.3655],[119.9517,16.3639],[119.9518,16.3611],[119.9505,16.3636],[119.947,16.3628],[119.9453,16.357],[119.9473,16.351],[119.9521,16.3512],[119.9566,16.3542],[119.9649,16.3648],[119.9631,16.3655]]]]},"properties":{"MUNICIPALITY":"Anda"}},
{"type":"Feature","geometry":{"type":"Polygon","coordinates":[[[120.6313,15.9708],[120.6298,15.9548],[120.6302,15.9495],[120.6351,15.949],[120.6433,15.9465],[120.64672813688213,15.948363117870723],[120.6479,15.949],[120.64772989036354,15.949788690132717],[120.64726353049342,15.951950904076007],[120.6468,15.9541],[120.6412,15.9603],[120.6381,15.9652],[120.6393,15.9697],[120.6452,15.9715],[120.6568,15.9796],[120.6632,15.9811],[120.6673,15.9857],[120.6782,15.9842],[120.6868,15.9851],[120.689,15.9865],[120.6886,15.9914],[120.6902,15.9955],[120.6955,15.9979],[120.7043,15.9956],[120.70883239227341,16.00177176820208],[120.70913152855728,16.00199286893364],[120.7132,16.005],[120.71116585365854,16.011017682926823],[120.7108,16.0121],[120.71009894179895,16.01235132275132],[120.7095,16.0131],[120.70473034482758,16.015026206896554],[120.70286,16.01752],[120.69905795401219,16.0236455185359],[120.6992855670103,16.02486391752577],[120.7006,16.0319],[120.7039,16.0349],[120.7094,16.0457],[120.7085,16.0494],[120.6608,16.0464],[120.6316,16.0422],[120.6294,16.0376],[120.6124,16.0283],[120.59428727556596,16.014482045277127],[120.626,16.0125],[120.6293,16.0098],[120.6305,16.0054],[120.6301,15.9789],[120.6313,15.9708]]]},"properties":{"MUNICIPALITY":"Asingan"}},
{"type":"Feature","geometry":{"type":"Polygon","coordinates":[[[120.6807,15.8457],[120.6996,15.8462],[120.7219,15.853],[120.7357,15.8504],[120.745,15.8539],[120.7237,15.9095],[120.7198151715729,15.943268124020205],[120.7179,15.943],[120.71785428571428,15.9434],[120.7175,15.9465],[120.71713262411348,15.946341134751775],[120.7171,15.9467],[120.7101,15.9433],[120.6997,15.946],[120.6911,15.9446],[120.6876,15.9481],[120.6792,15.9511],[120.6735,15.9489],[120.6668,15.9496],[120.659,15.9481],[120.662,15.9439],[120.65849726027398,15.94039726027398],[120.65559781659388,15.93892794759825],[120.64701114058356,15.934576591511942],[120.6439,15.933],[120.64404142277407,15.932413862237631],[120.6522,15.8986],[120.66235868991019,15.872205546751204],[120.6634,15.8695],[120.66537094972068,15.867260893854727],[120.6781,15.8528],[120.6807,15.8457]]]},"properties":{"MUNICIPALITY":"Balungao"}},
{"type":"Feature","geometry":{"type":"Polygon","coordinates":[[[119.8887,16.1292],[119.8973,16.1378],[119.9408,16.2078],[119.9422,16.2096],[119.9484,16.2113],[119.948,16.2131],[119.9415,16.217],[119.947,16.2252],[119.9451,16.2327],[119.9401,16.2315],[119.9309,16.2372],[119.9262,16.2458],[119.9277,16.25],[119.9256,16.2483],[119.9245,16.2461],[119.9227,16.2463],[119.9224,16.2426],[119.9208,16.2438],[119.9214,16.2464],[119.9181,16.2405],[119.9144,16.2422],[119.9175,16.245],[119.91895810055867,16.249050279329605],[119.91782530120483,16.250409638554217],[119.91571451612903,16.25099596774194],[119.9107972895863,16.25153566333809],[119.90851499148212,16.25156189664963],[119.8985,16.2498],[119.8989,16.2513],[119.8536,16.2499],[119.8037,16.2726],[119.7937,16.2723],[119.774,16.2644],[119.7725,16.2558],[119.7747,16.2533],[119.7727,16.2482],[119.78,16.2442],[119.7833,16.2394],[119.7767,16.235],[119.7742,16.2264],[119.7697,16.22],[119.7678,16.2194],[119.763,16.2094],[119.763,16.2045],[119.7816,16.1979],[119.798,16.1839],[119.8022,16.1767],[119.8256,16.1629],[119.8351,16.1542],[119.8448,16.1556],[119.87182142857144,16.15002857142857],[119.87485406360425,16.148925795053],[119.8814,16.1443],[119.8885,16.1348],[119.8887,16.1292]]]},"properties":{"MUNICIPALITY":"Bani"}},
{"type":"Feature","geometry":{"type":"Polygon","coordinates":[[[120.4348,15.8662],[120.42663007614213,15.873340101522842],[120.4229,15.8766],[120.4065,15.8915],[120.392,15.8907],[120.3813,15.8838],[120.3875,15.865],[120.39024773333334,15.854982222222223],[120.3923,15.8475],[120.39348696527905,15.841487197783543],[120.43993632057598,15.85195397877984],[120.4348,15.8662]]]},"properties":{"MUNICIPALITY":"Basista"}},
{"type":"Feature","geometry":{"type":"Polygon","coordinates":[[[120.573,15.8323],[120.49318014054892,15.832022526560426],[120.493,15.8318],[120.4847,15.8313],[120.489,15.8255],[120.4865,15.8215],[120.4799,15.8163],[120.4773,15.8166],[120.4748,15.8235],[120.4723,15.8243],[120.466,15.8207],[120.4656,15.8161],[120.4683,15.8107],[120.46876554071747,15.801761618224667],[120.4884,15.7997],[120.5306,15.7602],[120.5479,15.7707],[120.55,15.773],[120.5525,15.7814],[120.5693,15.8176],[120.573,15.8323]]]},"properties":{"MUNICIPALITY":"Bautista"}},
{"type":"Feature","geometry":{"type":"Polygon","coordinates":[[[120.4894,15.8631],[120.4781156282586,15.860557208029197],[120.4401,15.8515],[120.43993632057598,15.85195397877984],[120.39348696527905,15.841487197783543],[120.3931,15.8414],[120.406,15.7781],[120.3987,15.7731],[120.3997,15.7661],[120.4586,15.7453],[120.4811,15.7298],[120.5306,15.7602],[120.4884,15.7997],[120.46876554071747,15.801761618224667],[120.4683,15.8107],[120.4656,15.8161],[120.466,15.8207],[120.4723,15.8243],[120.4748,15.8235],[120.4773,15.8166],[120.4799,15.8163],[120.4865,15.8215],[120.489,15.8255],[120.4847,15.8313],[120.493,15.8318],[120.49318014054892,15.832022526560426],[120.4947,15.8339],[120.4894,15.8631]]]},"properties":{"MUNICIPALITY":"Bayambang"}},
{"type":"Feature","geometry":{"type":"Polygon","coordinates":[[[120.6316,16.0422],[120.6323,16.0711],[120.6385,16.0906],[120.6366,16.0972],[120.6383,16.1025],[120.6347,16.1137],[120.6349,16.1224],[120.6293,16.1244],[120.6294,16.1255],[120.5794,16.1147],[120.5726,16.1064],[120.5547,16.0836],[120.55493958090803,16.0830963911525],[120.55690917431191,16.078956225425976],[120.5657,16.0507],[120.5712,16.0198],[120.5716,16.0159],[120.59428727556596,16.014482045277127],[120.6124,16.0283],[120.6294,16.0376],[120.6316,16.0422]]]},"properties":{"MUNICIPALITY":"Binalonan"}},
{"type":"Feature","geometry":{"type":"Polygon","coordinates":[[[120.2821,15.9579],[120.284,15.9473],[120.2837,15.9441],[120.2942,15.9513],[120.3163,15.9657],[120.328,15.9658],[120.3286,15.974],[120.32853339500463,15.974867715078625],[120.32744637134779,15.989029217719134],[120.3254912684751,16.014499863477177],[120.325,16.0209],[120.3098,16.0361],[120.2985,16.0561],[120.2758,16.0469],[120.252,16.0404],[120.2719,15.98],[120.2821,15.9579]]]},"properties":{"MUNICIPALITY":"Binmaley"}},
{"type":"Feature","geometry":{"type":"MultiPolygon","coordinates":[[[[119.91895810055867,16.249050279329605],[119.9195,16.2484],[119.9239,16.255],[119.9136,16.2633],[119.9211,16.2723],[119.9218,16.2792],[119.9201,16.2815],[119.9142,16.2803],[119.9172,16.2831],[119.9168,16.2922],[119.912,16.295],[119.9132,16.2989],[119.9156,16.3003],[119.9169,16.3058],[119.9194,16.3098],[119.9196,16.3137],[119.9246,16.3194],[119.9231,16.3225],[119.9261,16.3235],[119.9287,16.333],[119.9283,16.3369],[119.9247,16.343],[119.9258,16.3481],[119.9239,16.3556],[119.9263,16.3594],[119.9241,16.3633],[119.9253,16.3655],[119.9231,16.3678],[119.9203,16.3675],[119.9176,16.3709],[119.9242,16.3731],[119.9256,16.3823],[119.9194,16.3847],[119.9178,16.3817],[119.9158,16.3819],[119.9119,16.3783],[119.9072,16.3806],[119.9044,16.3886],[119.9014,16.3922],[119.8928,16.3925],[119.8875,16.3889],[119.8836,16.3897],[119.8822,16.3936],[119.8728,16.3831],[119.8661,16.3789],[119.8558,16.3681],[119.8569,16.3622],[119.855,16.3581],[119.8372,16.3636],[119.8197,16.3617],[119.7936,16.3389],[119.7867,16.3289],[119.7825,16.3192],[119.7814,16.3122],[119.7789,16.3089],[119.7811,16.3022],[119.7794,16.2931],[119.7747,16.2869],[119.7733,16.2778],[119.7717,16.2763],[119.7731,16.275],[119.7733,16.2656],[119.774,16.2644],[119.7937,16.2723],[119.8037,16.2726],[119.8536,16.2499],[119.8989,16.2513],[119.8985,16.2498],[119.90851499148212,16.25156189664963],[119.9107972895863,16.25153566333809],[119.91571451612903,16.25099596774194],[119.91782530120483,16.250409638554217],[119.91895810055867,16.249050279329605]]],[[[119.9236,16.2677],[119.923,16.2665],[119.9247,16.2664],[119.9247,16.2674],[119.9236,16.2677]]],[[[119.9225,16.282],[119.9208,16.2821],[119.9219,16.2803],[119.923,16.2806],[119.9225,16.282]]],[[[119.9148,16.2974],[119.9152,16.2952],[119.9159,16.2949],[119.916,16.2988],[119.9148,16.2974]]],[[[119.9239,16.3125],[119.9242,16.3139],[119.9222,16.3147],[119.9208,16.3108],[119.9222,16.3107],[119.9239,16.3125]]],[[[119.9278,16.3892],[119.931,16.3866],[119.9325,16.3772],[119.936,16.3804],[119.9358,16.3778],[119.9444,16.3792],[119.9489,16.3768],[119.9518,16.3729],[119.9616,16.3695],[119.964,16.3706],[119.9641,16.373],[119.9616,16.3743],[119.9613,16.3782],[119.959,16.3799],[119.9595,16.3819],[119.9612,16.381],[119.9637,16.383],[119.9617,16.3939],[119.958,16.3925],[119.9587,16.3969],[119.9574,16.3988],[119.9572,16.3953],[119.9555,16.3951],[119.9544,16.4029],[119.9522,16.405],[119.9531,16.4061],[119.9507,16.406],[119.9499,16.4104],[119.9465,16.4093],[119.944,16.4118],[119.9439,16.4156],[119.9403,16.4214],[119.9378,16.4211],[119.9355,16.4233],[119.9374,16.4259],[119.9314,16.4292],[119.9308,16.4269],[119.9333,16.425],[119.9312,16.4232],[119.925,16.4219],[119.9177,16.4252],[119.9139,16.4227],[119.9118,16.4188],[119.9125,16.4133],[119.9098,16.4108],[119.9089,16.4035],[119.9118,16.3931],[119.9117,16.3849],[119.9176,16.3883],[119.9278,16.3892]]],[[[119.9286,16.3622],[119.9267,16.3598],[119.9286,16.3617],[119.9303,16.3648],[119.93,16.3669],[119.929,16.3657],[119.9286,16.3622]]],[[[119.9298,16.3727],[119.9289,16.372],[119.9302,16.3712],[119.9304,16.3717],[119.9298,16.3727]]],[[[119.9605,16.4062],[119.9627,16.4047],[119.9652,16.4066],[119.9619,16.4085],[119.9605,16.4062]]],[[[119.925,16.4425],[119.923,16.4439],[119.9213,16.4414],[119.923,16.4397],[119.925,16.4425]]]]},"properties":{"MUNICIPALITY":"Bolinao"}},
{"type":"Feature","geometry":{"type":"Polygon","coordinates":[[[120.1651,15.7986],[120.182,15.8092],[120.18308473282443,15.8106213740458],[120.18429316837009,15.812204841312537],[120.1849,15.813],[120.186,15.8202],[120.1853,15.8402],[120.1919,15.8495],[120.1917,15.8561],[120.1962,15.8603],[120.1955,15.8626],[120.202,15.8725],[120.2029,15.8772],[120.2093,15.8812],[120.2157,15.8893],[120.2246,15.8959],[120.2325,15.8957],[120.2468,15.9059],[120.24956666666667,15.9059],[120.2501,15.9055],[120.25074615384615,15.9059],[120.2543,15.9081],[120.25427679558011,15.908185082872928],[120.2534,15.9114],[120.2627,15.9137],[120.2741,15.9229],[120.2767,15.9271],[120.27592571428572,15.931281142857149],[120.2757,15.9325],[120.27509102428724,15.932867053854272],[120.2746,15.9338],[120.2722,15.9349],[120.2684,15.9369],[120.2501,15.9355],[120.2494,15.9395],[120.2512,15.9484],[120.26,15.9564],[120.258,15.9593],[120.2424,15.9623],[120.2393,15.9645],[120.2391,15.9684],[120.2435,15.9746],[120.2449,15.9811],[120.2424,15.9886],[120.2387,15.9927],[120.2313,15.9946],[120.2281,15.9934],[120.2265,15.9903],[120.2262,15.9787],[120.223,15.975],[120.2191,15.975],[120.2153,15.9778],[120.2141,15.9826],[120.2166,15.9881],[120.2241796875,15.995581249999997],[120.2243,15.9957],[120.22426335988413,15.995841564084],[120.2221,16.0042],[120.21928445945946,16.006389864864865],[120.2185,16.007],[120.2156,16.0063],[120.21251029306647,16.00174674767691],[120.2118,16.0007],[120.2121,15.9951],[120.20643131524008,15.993930271398748],[120.20531304347826,15.994472463768119],[120.1995,16.0025],[120.1801,15.9731],[120.1645,15.9607],[120.15324045673503,15.917660107656102],[120.1533,15.9176],[120.1352,15.8487],[120.1312,15.8266],[120.143,15.8262],[120.1582,15.8172],[120.1625,15.8114],[120.1651,15.7986]]]},"properties":{"MUNICIPALITY":"Bugallon"}},
{"type":"Feature","geometry":{"type":"Polygon","coordinates":[[[119.7603,16.0128],[119.7595,16.0117],[119.7608,16.0025],[119.7583,15.9966],[119.7628,15.9928],[119.7625,15.9867],[119.7571,15.9792],[119.7513,15.9742],[119.7495,15.9651],[119.7563,15.9505],[119.7586,15.9417],[119.76040199931059,15.942407928300588],[119.7763,15.9584],[119.8144,16.0096],[119.8255,16.0187],[119.8326,16.0219],[119.8457,16.0235],[119.898,16.0177],[119.9318,16.0113],[119.9292,16.0219],[119.9314645244216,16.038506512425027],[119.9285,16.0488],[119.92038754208752,16.05780393680395],[119.91729947229553,16.059971524254102],[119.8947,16.0715],[119.8889,16.08],[119.8648,16.0885],[119.86039549702633,16.092435938827535],[119.8601,16.0927],[119.8581,16.096],[119.8096,16.0505],[119.7783,16.0144],[119.7684,16.0098],[119.7651,16.0102],[119.7603,16.0128]]]},"properties":{"MUNICIPALITY":"Burgos"}},
{"type":"Feature","geometry":{"type":"Polygon","coordinates":[[[120.328,15.9658],[120.3577,15.9654],[120.3726,15.9604],[120.4061,15.9509],[120.3989,15.9563],[120.3888,15.9841],[120.3933,16.0042],[120.3911,16.0272],[120.3866,16.0287],[120.3871,16.0318],[120.3847,16.0348],[120.3254912684751,16.014499863477177],[120.32744637134779,15.989029217719134],[120.32853339500463,15.974867715078625],[120.3286,15.974],[120.328,15.9658]]]},"properties":{"MUNICIPALITY":"Calasiao"}},
{"type":"Feature","geometry":{"type":"MultiPolygon","coordinates":[[[[120.3254912684751,16.014499863477177],[120.3847,16.0348],[120.38518076923077,16.04181923076923],[120.3852,16.0421],[120.3847,16.0423],[120.3767,16.0455],[120.3762,16.0491],[120.3718,16.0514],[120.3707,16.0571],[120.3669,16.0628],[120.364,16.0623],[120.3629,16.064],[120.3722,16.0713],[120.3759,16.0771],[120.3677,16.0864],[120.3706,16.0882],[120.375,16.0862],[120.38,16.0902],[120.3879333402147,16.102638693916877],[120.38777926380368,16.10271484662577],[120.387,16.1031],[120.3838,16.1065],[120.3858,16.1106],[120.3775,16.1128],[120.375,16.1119],[120.3704,16.1021],[120.3628,16.0948],[120.3339,16.0761],[120.3317,16.0725],[120.3322,16.0681],[120.3278,16.0583],[120.3264,16.06],[120.3286,16.0669],[120.325,16.0678],[120.2985,16.0561],[120.3098,16.0361],[120.325,16.0209],[120.3254912684751,16.014499863477177]]],[[[120.3873,16.1135],[120.38336162943494,16.118812220762155],[120.38322668008048,16.118994245472837],[120.3775,16.1155],[120.3792,16.1142],[120.3845,16.1122],[120.3865,16.1116],[120.3873,16.1135]]]]},"properties":{"MUNICIPALITY":"Dagupan"}},
{"type":"Feature","geometry":{"type":"MultiPolygon","coordinates":[[[[120.0118,15.9123],[120.0071,15.952],[120.00102152199764,15.958416171224712],[119.9809,15.9752],[119.953,15.9895],[119.9318,16.0113],[119.898,16.0177],[119.8457,16.0235],[119.8326,16.0219],[119.8255,16.0187],[119.8144,16.0096],[119.7763,15.9584],[119.76040199931059,15.942407928300588],[119.7594,15.9414],[119.7611,15.9419],[119.7642,15.9347],[119.762,15.9321],[119.7658,15.925],[119.7686,15.923],[119.7691,15.9187],[119.7722,15.9139],[119.7744,15.9153],[119.7744,15.9237],[119.785,15.9314],[119.7925,15.928],[119.7976,15.9203],[119.8004,15.9227],[119.8046,15.922],[119.8105,15.9423],[119.8125,15.9555],[119.8222,15.9575],[119.8236,15.9592],[119.8356,15.9567],[119.8383,15.9592],[119.8444,15.9589],[119.8469,15.9611],[119.845,15.9633],[119.8469,15.9706],[119.8486,15.9625],[119.856,15.9614],[119.8625,15.955],[119.8614,15.9522],[119.8648,15.9418],[119.8728,15.9261],[119.8769,15.9216],[119.8811,15.9064],[119.8913,15.8925],[119.8933,15.8819],[119.8925,15.878],[119.895,15.8722],[119.9,15.8667],[119.9069,15.8722],[119.9099,15.8723],[119.9112,15.8747],[119.918,15.8776],[119.9243,15.8742],[119.9286,15.8689],[119.9328,15.8708],[119.9429,15.8654],[119.942,15.8678],[119.9442,15.8665],[119.944,15.8695],[119.9482,15.8687],[119.9488,15.8712],[119.9505,15.8693],[119.9506,15.873],[119.9572,15.8727],[119.967,15.8759],[119.9686,15.8783],[119.9746,15.8807],[119.9768,15.884],[119.9799,15.8853],[119.9796,15.8882],[119.9817,15.8908],[119.9958,15.9004],[120.0118,15.9123]]],[[[119.7775,15.8803],[119.7789,15.8808],[119.7783,15.8825],[119.7764,15.8817],[119.7775,15.8803]]],[[[119.7742,15.9136],[119.7753,15.9122],[119.7764,15.9128],[119.7756,15.9144],[119.7742,15.9136]]]]},"properties":{"MUNICIPALITY":"Dasol"}},
{"type":"Feature","geometry":{"type":"MultiPolygon","coordinates":[[[[120.1533,15.9176],[120.15321873500915,15.917577075802898],[120.0902,15.8998],[120.02486939099384,15.8933724657806],[120.0221,15.8931],[120.0201,15.8941],[120.01461450151056,15.902614803625406],[120.0134,15.9045],[120.01284025515436,15.908720298439397],[120.0118,15.9123],[119.9958,15.9004],[119.9817,15.8908],[119.9796,15.8882],[119.9799,15.8853],[119.9768,15.884],[119.9746,15.8807],[119.9686,15.8783],[119.967,15.8759],[119.9572,15.8727],[119.9506,15.873],[119.9505,15.8693],[119.9488,15.8712],[119.9482,15.8687],[119.944,15.8695],[119.9442,15.8665],[119.942,15.8678],[119.9429,15.8654],[119.9328,15.8708],[119.9286,15.8689],[119.9243,15.8742],[119.918,15.8776],[119.9112,15.8747],[119.9099,15.8723],[119.9069,15.8722],[119.9021,15.8677],[119.9058,15.8619],[119.9054,15.8598],[119.9089,15.8578],[119.9086,15.8553],[119.9056,15.8536],[119.9111,15.8481],[119.9139,15.838],[119.9084,15.8297],[119.904,15.8262],[119.8982,15.8256],[119.8944,15.8233],[119.8903,15.8175],[119.8853,15.8144],[119.8842,15.8147],[119.8856,15.8175],[119.8831,15.8161],[119.8817,15.8139],[119.8828,15.8125],[119.8872,15.8133],[119.8922,15.8108],[119.8947,15.8117],[119.8961,15.8094],[119.8875,15.8106],[119.8867,15.8094],[119.8883,15.8067],[119.8926,15.8077],[119.8989,15.806],[119.9049,15.8079],[119.9128,15.7944],[119.9244,15.8066],[119.9367,15.806],[119.94,15.8044],[119.9458,15.8099],[119.9493,15.8106],[119.9522,15.8064],[119.9599,15.8066],[119.9592,15.7923],[119.9734,15.7923],[119.9787,15.7977],[119.9861,15.7943],[119.9915,15.7944],[119.9908,15.7923],[119.9989,15.8033],[119.9992,15.8072],[120.0135,15.8365],[120.0288,15.8453],[120.0367,15.8425],[120.0658,15.8217],[120.0854,15.8109],[120.091,15.81],[120.1028,15.812],[120.1312,15.8266],[120.1352,15.8487],[120.1533,15.9176]]],[[[119.8641,15.8123],[119.8662,15.8123],[119.8668,15.8152],[119.8647,15.8146],[119.8641,15.8123]]]]},"properties":{"MUNICIPALITY":"infanta"}},
{"type":"Feature","geometry":{"type":"Polygon","coordinates":[[[120.1995,16.0025],[120.1792,16.0095],[120.1678,16.0086],[120.1627004975898,16.012047550925214],[120.1523,16.0272],[120.1478,16.0311],[120.1556,16.0129],[120.1408,16.0403],[120.134,16.0434],[120.1271,16.0491],[120.1134,16.0555],[120.1097,16.06],[120.1106,16.0614],[120.1125,16.0608],[120.1126,16.0622],[120.1076,16.064],[120.1028340425532,16.062510638297873],[120.1045,16.0614],[120.08591397028628,15.984657683762759],[120.08591424446287,15.9846574718791],[120.09,15.9815],[120.15324045673503,15.917660107656102],[120.1645,15.9607],[120.1801,15.9731],[120.1995,16.0025]]]},"properties":{"MUNICIPALITY":"Labrador"}},
{"type":"Feature","geometry":{"type":"Polygon","coordinates":[[[120.5547,16.0836],[120.5529,16.085],[120.5429,16.0833],[120.5378,16.0856],[120.53141884561892,16.0823657162726],[120.5305,16.0819],[120.528620971867,16.08191527665149],[120.5248,16.0698],[120.5231,16.0703],[120.5194,16.0654],[120.5128,16.0668],[120.511,16.0615],[120.514,16.0557],[120.503,16.0518],[120.50129038461539,16.04740384615384],[120.5012,16.0418],[120.5053,16.0414],[120.5052,16.036],[120.5078,16.0334],[120.5064,16.0279],[120.5115,16.0278],[120.5133,16.031],[120.5184,16.031],[120.5225,16.0331],[120.5347,16.0314],[120.5344,16.017],[120.5413,16.0129],[120.5376506329114,16.010467088607598],[120.5385,16.009],[120.5546,16.0057],[120.5716,16.0159],[120.5712,16.0198],[120.5657,16.0507],[120.55690917431191,16.078956225425976],[120.55493958090803,16.0830963911525],[120.5547,16.0836]]]},"properties":{"MUNICIPALITY":"Laoac"}},
{"type":"Feature","geometry":{"type":"Polygon","coordinates":[[[120.2821,15.9579],[120.2719,15.98],[120.252,16.0404],[120.2236,16.0347],[120.2117,16.0361],[120.2044,16.0386],[120.2027,16.0426],[120.1954,16.0428],[120.1916,16.0451],[120.1778,16.0367],[120.1636,16.035],[120.1431,16.0386],[120.1458,16.0364],[120.1478,16.0311],[120.1523,16.0272],[120.1627004975898,16.012047550925214],[120.1678,16.0086],[120.1792,16.0095],[120.1995,16.0025],[120.20531304347826,15.994472463768119],[120.20643131524008,15.993930271398748],[120.2121,15.9951],[120.2118,16.0007],[120.21251029306647,16.00174674767691],[120.2156,16.0063],[120.2185,16.007],[120.21928445945946,16.006389864864865],[120.2221,16.0042],[120.22426335988413,15.995841564084],[120.2243,15.9957],[120.2241796875,15.995581249999997],[120.2166,15.9881],[120.2141,15.9826],[120.2153,15.9778],[120.2191,15.975],[120.223,15.975],[120.2262,15.9787],[120.2265,15.9903],[120.2281,15.9934],[120.2313,15.9946],[120.2387,15.9927],[120.2424,15.9886],[120.2449,15.9811],[120.2435,15.9746],[120.2391,15.9684],[120.2393,15.9645],[120.2424,15.9623],[120.258,15.9593],[120.26,15.9564],[120.2512,15.9484],[120.2494,15.9395],[120.2501,15.9355],[120.2684,15.9369],[120.2722,15.9349],[120.2837,15.9441],[120.284,15.9473],[120.2821,15.9579]]]},"properties":{"MUNICIPALITY":"Lingayen"}},
{"type":"Feature","geometry":{"type":"Polygon","coordinates":[[[120.0118,15.9123],[120.01284025515436,15.908720298439397],[120.0134,15.9045],[120.01461450151056,15.902614803625406],[120.0201,15.8941],[120.0221,15.8931],[120.02486939099384,15.8933724657806],[120.0902,15.8998],[120.15321873500915,15.917577075802898],[120.1533,15.9176],[120.15324045673503,15.917660107656102],[120.09,15.9815],[120.08591424446287,15.9846574718791],[120.08591397028628,15.984657683762759],[120.06459394205443,16.001133801580334],[119.9725,16.0726],[119.965,16.0781],[119.9587,16.0806],[119.9387,16.0806],[119.9354,16.0868],[119.9333,16.0974],[119.9269,16.1068],[119.9199,16.1119],[119.8992,16.1204],[119.8887,16.1292],[119.88842661290323,16.128562096774196],[119.8863,16.1236],[119.8581,16.096],[119.8601,16.0927],[119.86039549702633,16.092435938827535],[119.8648,16.0885],[119.8889,16.08],[119.8947,16.0715],[119.91729947229553,16.059971524254102],[119.92038754208752,16.05780393680395],[119.9285,16.0488],[119.9314645244216,16.038506512425027],[119.9292,16.0219],[119.9318,16.0113],[119.953,15.9895],[119.9809,15.9752],[120.00102152199764,15.958416171224712],[120.0071,15.952],[120.0118,15.9123]]]},"properties":{"MUNICIPALITY":"Mabini"}},
{"type":"Feature","geometry":{"type":"Polygon","coordinates":[[[120.4348,15.8662],[120.43993632057598,15.85195397877984],[120.4401,15.8515],[120.4781156282586,15.860557208029197],[120.4894,15.8631],[120.49158785038026,15.86376695949092],[120.5018,15.8662],[120.5303,15.8746],[120.52997124795806,15.875468020742314],[120.5189,15.9047],[120.51468864599222,15.911256312489378],[120.5079,15.9253],[120.5002,15.9417],[120.4984,15.9656],[120.4948,15.973],[120.41352822288164,15.952750774810418],[120.40624909419162,15.950937147481792],[120.4061,15.9509],[120.3992,15.9318],[120.4065,15.8915],[120.4229,15.8766],[120.42663007614213,15.873340101522842],[120.4348,15.8662]]]},"properties":{"MUNICIPALITY":"Malasiqui"}},
{"type":"Feature","geometry":{"type":"Polygon","coordinates":[[[120.5374,16.0109],[120.5376506329114,16.010467088607598],[120.5413,16.0129],[120.5344,16.017],[120.5347,16.0314],[120.5225,16.0331],[120.5184,16.031],[120.5133,16.031],[120.5115,16.0278],[120.5064,16.0279],[120.5078,16.0334],[120.5052,16.036],[120.5053,16.0414],[120.5012,16.0418],[120.50129038461539,16.04740384615384],[120.503,16.0518],[120.514,16.0557],[120.511,16.0615],[120.5128,16.0668],[120.5194,16.0654],[120.5231,16.0703],[120.5248,16.0698],[120.528620971867,16.08191527665149],[120.5182,16.082],[120.4907,16.087],[120.4555,16.058],[120.4498,16.0505],[120.4534,16.0463],[120.4598,16.0434],[120.4664,16.0428],[120.4685,16.0389],[120.4719,16.0376],[120.4796,16.0287],[120.4809,16.024],[120.4955,16.0073],[120.49629179755671,16.007665445026174],[120.4968,16.0087],[120.5007,16.0097],[120.5144,16.0103],[120.5292,16.0076],[120.5374,16.0109]]]},"properties":{"MUNICIPALITY":"Manaoag"}},
{"type":"Feature","geometry":{"type":"Polygon","coordinates":[[[120.3911,16.0272],[120.3965,16.0305],[120.4151,16.0271],[120.4339,16.0367],[120.4443,16.0477],[120.448,16.0489],[120.44702202848009,16.049085759953503],[120.4301,16.0523],[120.4298,16.0546],[120.4330945736434,16.06041395348837],[120.4332,16.0606],[120.431,16.0658],[120.4321,16.0698],[120.43132250770812,16.070234480986645],[120.4287,16.0717],[120.41654730082581,16.09491857159295],[120.4130626,16.0939372],[120.41259503945885,16.09380552423901],[120.4108,16.0933],[120.4051,16.0942],[120.3957,16.0988],[120.3879333402147,16.102638693916877],[120.38,16.0902],[120.375,16.0862],[120.3706,16.0882],[120.3677,16.0864],[120.3759,16.0771],[120.3722,16.0713],[120.3629,16.064],[120.364,16.0623],[120.3669,16.0628],[120.3707,16.0571],[120.3718,16.0514],[120.3762,16.0491],[120.3767,16.0455],[120.3847,16.0423],[120.3852,16.0421],[120.38518076923077,16.04181923076923],[120.3847,16.0348],[120.3871,16.0318],[120.3866,16.0287],[120.3911,16.0272]]]},"properties":{"MUNICIPALITY":"Mangaldan"}},
{"type":"Feature","geometry":{"type":"Polygon","coordinates":[[[120.1829,15.7346],[120.1949,15.7104],[120.2177,15.6751],[120.2488,15.6311],[120.2539,15.6185],[120.2769,15.6324],[120.2943,15.6387],[120.3073,15.6473],[120.3239,15.65],[120.3167,15.6681],[120.3231,15.6714],[120.3252,15.6769],[120.3388,15.6827],[120.3518,15.6976],[120.3515,15.7022],[120.3533,15.7051],[120.3612,15.7102],[120.3572,15.7191],[120.3592,15.7249],[120.3586,15.7299],[120.3639,15.7322],[120.376,15.7506],[120.3844,15.7597],[120.3884,15.7611],[120.3926,15.7655],[120.3997,15.7661],[120.3987,15.7731],[120.3951,15.7763],[120.3875,15.7765],[120.3702,15.791],[120.3681,15.7913],[120.3598,15.7868],[120.352,15.7899],[120.343,15.8016],[120.3339,15.801],[120.3341,15.8052],[120.341,15.8121],[120.3385,15.8149],[120.3314,15.8159],[120.3274,15.8271],[120.3234,15.8282],[120.3144,15.8258],[120.3105,15.8281],[120.3088,15.8318],[120.3097,15.8366],[120.316,15.8441],[120.30954790874526,15.846099239543722],[120.309200143747,15.84641039770005],[120.30798988764045,15.847493258426972],[120.3072,15.8482],[120.2893,15.8387],[120.1829,15.7346]]]},"properties":{"MUNICIPALITY":"Mangatarem"}},
{"type":"Feature","geometry":{"type":"Polygon","coordinates":[[[120.4498,16.0505],[120.44897074010326,16.0500778313253],[120.448,16.0489],[120.4443,16.0477],[120.4339,16.0367],[120.4151,16.0271],[120.4171347826087,16.02656956521739],[120.4217,16.0257],[120.4385,16.021],[120.46880052763215,16.008802343509103],[120.4698,16.0084],[120.4701372738239,16.006151507840762],[120.4745,15.9975],[120.4766,15.9983],[120.4853,15.9952],[120.49436862745098,16.00375042016806],[120.4956330368488,16.0063243964422],[120.4955,16.0073],[120.4809,16.024],[120.4796,16.0287],[120.4719,16.0376],[120.4685,16.0389],[120.4664,16.0428],[120.4598,16.0434],[120.4534,16.0463],[120.4498,16.0505]]]},"properties":{"MUNICIPALITY":"Mapandan"}},
{"type":"Feature","geometry":{"type":"Polygon","coordinates":[[[120.7824,16.0036],[120.7828,16.0023],[120.8902,16.054],[120.8797,16.0793],[120.88,16.1059],[120.8067,16.0715],[120.7628,16.0476],[120.7685,16.0321],[120.7788,16.0138],[120.7824,16.0036]]]},"properties":{"MUNICIPALITY":"Natividad"}},
{"type":"Feature","geometry":{"type":"Polygon","coordinates":[[[120.4933,16.0896],[120.4907,16.087],[120.5182,16.082],[120.528620971867,16.08191527665149],[120.5305,16.0819],[120.53141884561892,16.0823657162726],[120.5378,16.0856],[120.5429,16.0833],[120.5529,16.085],[120.5547,16.0836],[120.5726,16.1064],[120.5742,16.1125],[120.5684,16.1186],[120.5646,16.1339],[120.5558,16.1438],[120.5509,16.1528],[120.5508,16.1599],[120.4745,16.148],[120.4745630442206,16.14820174150589],[120.4739,16.1481],[120.4719,16.1463],[120.46550831408776,16.145436258660506],[120.4645,16.1453],[120.4644595890411,16.14457260273973],[120.4635,16.1273],[120.4789,16.103],[120.4908,16.0915],[120.4933,16.0896]]]},"properties":{"MUNICIPALITY":"Pozorrubio"}},
{"type":"Feature","geometry":{"type":"Polygon","coordinates":[[[120.58785673526953,15.888544628081913],[120.609,15.8614],[120.6149,15.846],[120.6128,15.8321],[120.6217,15.8308],[120.6519,15.8299],[120.6569,15.8398],[120.6668,15.841],[120.6807,15.8457],[120.6781,15.8528],[120.66537094972068,15.867260893854727],[120.6634,15.8695],[120.66235868991019,15.872205546751204],[120.6522,15.8986],[120.64404142277407,15.932413862237631],[120.6439,15.933],[120.6421,15.931],[120.63882030534351,15.931142595419848],[120.6375,15.9312],[120.636433446232,15.930053852667228],[120.63371774193548,15.927135483870964],[120.6326,15.9249],[120.63165491493383,15.924918714555766],[120.6263383126935,15.925023993808049],[120.6234759202454,15.925080674846626],[120.62188005319149,15.92466436170213],[120.61980102739726,15.923203424657533],[120.61918281938325,15.92114273127753],[120.6221,15.9108],[120.61921404958676,15.907593388429737],[120.6185,15.9068],[120.61789888406697,15.906436949783025],[120.61202662742382,15.902890339335178],[120.6084,15.9007],[120.59780854224698,15.89838913649025],[120.59711399387128,15.898169254341159],[120.59399500542888,15.896743431053205],[120.5862566516578,15.890917928776101],[120.58612110565745,15.8907811159907],[120.58611752447055,15.890777501334757],[120.58785673526953,15.888544628081913]]]},"properties":{"MUNICIPALITY":"Rosales"}},
{"type":"Feature","geometry":{"type":"Polygon","coordinates":[[[120.3072,15.8482],[120.30798988764045,15.847493258426972],[120.309200143747,15.84641039770005],[120.335,15.8559],[120.3875,15.865],[120.3813,15.8838],[120.392,15.8907],[120.4065,15.8915],[120.3992,15.9318],[120.4061,15.9509],[120.3726,15.9604],[120.3577,15.9654],[120.328,15.9658],[120.3163,15.9657],[120.2942,15.9513],[120.2837,15.9441],[120.2722,15.9349],[120.2746,15.9338],[120.27509102428724,15.932867053854272],[120.2757,15.9325],[120.27592571428572,15.931281142857149],[120.2767,15.9271],[120.2741,15.9229],[120.2627,15.9137],[120.2534,15.9114],[120.25427679558011,15.908185082872928],[120.2543,15.9081],[120.2603,15.9019],[120.2614,15.8924],[120.2639,15.8875],[120.26712337042922,15.884083227345027],[120.2789,15.8716],[120.2947,15.8627],[120.2961,15.8548],[120.3044,15.8522],[120.3072,15.8482]]]},"properties":{"MUNICIPALITY":"San Carlos"}},
{"type":"Feature","geometry":{"type":"Polygon","coordinates":[[[120.3879333402147,16.102638693916877],[120.3957,16.0988],[120.4051,16.0942],[120.4108,16.0933],[120.41259503945885,16.09380552423901],[120.4130626,16.0939372],[120.41654730082581,16.09491857159295],[120.4527,16.1051],[120.4519,16.1154],[120.4593,16.1263],[120.4635,16.1273],[120.4644595890411,16.14457260273973],[120.4645,16.1453],[120.46550831408776,16.145436258660506],[120.4719,16.1463],[120.4739,16.1481],[120.4745630442206,16.14820174150589],[120.4755,16.1512],[120.4707,16.1595],[120.4705,16.1639],[120.4608,16.1819],[120.4564,16.1946],[120.4505,16.2001],[120.447,16.212],[120.4345,16.215],[120.4244,16.2095],[120.4154,16.2083],[120.4175,16.2045],[120.4195,16.1892],[120.4252,16.1717],[120.4251,16.1682],[120.4214,16.159],[120.4163,16.1516],[120.3952,16.1287],[120.383,16.1193],[120.38322668008048,16.118994245472837],[120.38336162943494,16.118812220762155],[120.3873,16.1135],[120.3867,16.1114],[120.3958,16.1111],[120.3919,16.1094],[120.3858,16.1106],[120.3838,16.1065],[120.387,16.1031],[120.38777926380368,16.10271484662577],[120.3879333402147,16.102638693916877]]]},"properties":{"MUNICIPALITY":"San Fabian"}},
{"type":"Feature","geometry":{"type":"Polygon","coordinates":[[[120.448,16.0489],[120.44897074010326,16.0500778313253],[120.4498,16.0505],[120.4555,16.058],[120.4907,16.087],[120.4933,16.0896],[120.4908,16.0915],[120.4789,16.103],[120.4635,16.1273],[120.4593,16.1263],[120.4519,16.1154],[120.4527,16.1051],[120.41654730082581,16.09491857159295],[120.4287,16.0717],[120.43132250770812,16.070234480986645],[120.4321,16.0698],[120.431,16.0658],[120.4332,16.0606],[120.4330945736434,16.06041395348837],[120.4298,16.0546],[120.4301,16.0523],[120.44702202848009,16.049085759953503],[120.448,16.0489]]]},"properties":{"MUNICIPALITY":"San Jacinto"}},
{"type":"Feature","geometry":{"type":"Polygon","coordinates":[[[120.7085,16.0494],[120.70872270916335,16.05010239043825],[120.71091757837839,16.05702467027027],[120.7202,16.0519],[120.7235,16.055],[120.72357835451977,16.05582831920903],[120.72394136924804,16.05966590347926],[120.7204,16.0772],[120.7221,16.0863],[120.7069,16.103],[120.698,16.1098],[120.6955,16.1187],[120.6878,16.1249],[120.6816,16.136],[120.6736,16.1383],[120.6775,16.1412],[120.6821,16.1483],[120.6872,16.1476],[120.6899,16.1514],[120.697,16.1552],[120.693,16.1594],[120.6826,16.1593],[120.6879,16.1706],[120.6827,16.1719],[120.6807,16.1745],[120.6886,16.1773],[120.6911,16.1843],[120.6954,16.1842],[120.7006,16.1898],[120.6973,16.1915],[120.6553,16.1877],[120.626,16.2018],[120.6112,16.2046],[120.6203,16.1966],[120.6223,16.1931],[120.6225,16.1876],[120.6179,16.1827],[120.6184,16.1776],[120.6246,16.172],[120.6347,16.1571],[120.6327,16.151],[120.6332,16.1391],[120.63261038461538,16.136123846153815],[120.63177145922748,16.13188927038631],[120.6311,16.1285],[120.63002971830986,16.12661126760561],[120.6294,16.1255],[120.6293,16.1244],[120.6349,16.1224],[120.6347,16.1137],[120.6383,16.1025],[120.6366,16.0972],[120.6385,16.0906],[120.6323,16.0711],[120.6316,16.0422],[120.6608,16.0464],[120.7085,16.0494]]]},"properties":{"MUNICIPALITY":"San Manuel"}},
{"type":"Feature","geometry":{"type":"Polygon","coordinates":[[[120.7573,16.054],[120.7628,16.0476],[120.8067,16.0715],[120.88,16.1059],[120.8684,16.1233],[120.8572,16.1329],[120.8414,16.1715],[120.7689,16.2014],[120.6973,16.1915],[120.7006,16.1898],[120.6954,16.1842],[120.6911,16.1843],[120.6886,16.1773],[120.6807,16.1745],[120.6827,16.1719],[120.6879,16.1706],[120.6826,16.1593],[120.693,16.1594],[120.697,16.1552],[120.6899,16.1514],[120.6872,16.1476],[120.6821,16.1483],[120.6775,16.1412],[120.6736,16.1383],[120.6816,16.136],[120.6878,16.1249],[120.6955,16.1187],[120.698,16.1098],[120.7069,16.103],[120.7221,16.0863],[120.7204,16.0772],[120.72394136924804,16.05966590347926],[120.72357835451977,16.05582831920903],[120.7235,16.055],[120.7475,16.0527],[120.7553,16.0537],[120.7573,16.054]]]},"properties":{"MUNICIPALITY":"San Nicolas"}},
{"type":"Feature","geometry":{"type":"Polygon","coordinates":[[[120.7198151715729,15.943268124020205],[120.7198,15.9434],[120.7479,15.9472],[120.7591,15.9463],[120.8322,15.9563],[120.8365,15.9586],[120.8443,15.9587],[120.8534,15.9644],[120.9166,15.9926],[120.9099,16.0194],[120.9028,16.0298],[120.8958,16.0464],[120.8902,16.054],[120.7828,16.0023],[120.7837,15.9968],[120.7825,15.9899],[120.7765,15.9806],[120.7719,15.978],[120.7686,15.9786],[120.7635,15.9768],[120.75943533870203,15.974721127427763],[120.7504,15.9701],[120.741,15.969],[120.7385,15.967],[120.7295,15.9672],[120.7225,15.9586],[120.7175,15.9465],[120.71785428571428,15.9434],[120.7179,15.943],[120.7198151715729,15.943268124020205]]]},"properties":{"MUNICIPALITY":"San Quintin"}},
{"type":"Feature","geometry":{"type":"Polygon","coordinates":[[[120.4061,15.9509],[120.40624909419162,15.950937147481792],[120.41352822288164,15.952750774810418],[120.4948,15.973],[120.4927,15.9799],[120.4853,15.9901],[120.4745,15.9975],[120.4701372738239,16.006151507840762],[120.4698,16.0084],[120.46880052763215,16.008802343509103],[120.4385,16.021],[120.4217,16.0257],[120.4171347826087,16.02656956521739],[120.4151,16.0271],[120.3965,16.0305],[120.3911,16.0272],[120.3933,16.0042],[120.3888,15.9841],[120.3989,15.9563],[120.4061,15.9509]]]},"properties":{"MUNICIPALITY":"Santa Barbara"}},
{"type":"Feature","geometry":{"type":"Polygon","coordinates":[[[120.6302,15.9495],[120.6394,15.9385],[120.635,15.9294],[120.636433446232,15.930053852667228],[120.6375,15.9312],[120.63882030534351,15.931142595419848],[120.6421,15.931],[120.6439,15.933],[120.64701114058356,15.934576591511942],[120.65559781659388,15.93892794759825],[120.65849726027398,15.94039726027398],[120.662,15.9439],[120.659,15.9481],[120.6668,15.9496],[120.6735,15.9489],[120.6792,15.9511],[120.6876,15.9481],[120.6911,15.9446],[120.6997,15.946],[120.7101,15.9433],[120.7171,15.9467],[120.71713262411348,15.946341134751775],[120.7175,15.9465],[120.7225,15.9586],[120.7295,15.9672],[120.7385,15.967],[120.741,15.969],[120.7504,15.9701],[120.75943533870203,15.974721127427763],[120.753,15.9818],[120.7256,16.0011],[120.70913152855728,16.00199286893364],[120.70883239227341,16.00177176820208],[120.7043,15.9956],[120.6955,15.9979],[120.6902,15.9955],[120.6886,15.9914],[120.689,15.9865],[120.6868,15.9851],[120.6782,15.9842],[120.6673,15.9857],[120.6632,15.9811],[120.6568,15.9796],[120.6452,15.9715],[120.6393,15.9697],[120.6381,15.9652],[120.6412,15.9603],[120.6468,15.9541],[120.64726353049342,15.951950904076007],[120.64772989036354,15.949788690132717],[120.6479,15.949],[120.64672813688213,15.948363117870723],[120.6433,15.9465],[120.6351,15.949],[120.6302,15.9495]]]},"properties":{"MUNICIPALITY":"Sta. Maria"}},
{"type":"Feature","geometry":{"type":"Polygon","coordinates":[[[120.5799,15.8577],[120.58785673526953,15.888544628081913],[120.58611752447055,15.890777501334757],[120.58596283382789,15.890621364985156],[120.58012912822444,15.884733138768594],[120.5797,15.8843],[120.57715671641792,15.883902611940298],[120.57404266211604,15.883416040955632],[120.5733,15.8833],[120.57274598214286,15.883573214285715],[120.57059791044777,15.884632537313431],[120.56698036608864,15.886416531791907],[120.55680419056021,15.879172474636087],[120.553,15.8739],[120.5577204570185,15.869578454842218],[120.56421497975707,15.865384075573555],[120.5799,15.8577]]]},"properties":{"MUNICIPALITY":"Sto. Tomas"}},
{"type":"Feature","geometry":{"type":"Polygon","coordinates":[[[120.6294,16.1255],[120.63002971830986,16.12661126760561],[120.6311,16.1285],[120.63177145922748,16.13188927038631],[120.63261038461538,16.136123846153815],[120.6332,16.1391],[120.6327,16.151],[120.6347,16.1571],[120.6246,16.172],[120.6184,16.1776],[120.6179,16.1827],[120.6225,16.1876],[120.6223,16.1931],[120.6203,16.1966],[120.6112,16.2046],[120.5474,16.2217],[120.5125,16.237],[120.5063,16.2291],[120.4975,16.223],[120.5011,16.2181],[120.4995,16.2114],[120.4758,16.2136],[120.447,16.212],[120.4505,16.2001],[120.4564,16.1946],[120.4608,16.1819],[120.4705,16.1639],[120.4707,16.1595],[120.4755,16.1512],[120.4745630442206,16.14820174150589],[120.4745,16.148],[120.5508,16.1599],[120.5509,16.1528],[120.5558,16.1438],[120.5646,16.1339],[120.5684,16.1186],[120.5742,16.1125],[120.5726,16.1064],[120.5794,16.1147],[120.6294,16.1255]]]},"properties":{"MUNICIPALITY":"Sison"}},
{"type":"Feature","geometry":{"type":"MultiPolygon","coordinates":[[[[119.9725,16.0726],[120.06459394205443,16.001133801580334],[120.08591397028628,15.984657683762759],[120.1045,16.0614],[120.1028340425532,16.062510638297873],[120.1003,16.0642],[120.0971,16.0691],[120.0987,16.0738],[120.0969,16.0768],[120.0989,16.0804],[120.1049,16.0835],[120.1098,16.0798],[120.1097,16.0747],[120.1128,16.0736],[120.1142,16.0789],[120.1064,16.0866],[120.1056,16.0886],[120.1069,16.0911],[120.1053,16.0936],[120.1004,16.091],[120.0945,16.0945],[120.093,16.1025],[120.0888,16.1076],[120.0889,16.1164],[120.0936,16.1204],[120.0931,16.1242],[120.1015,16.1209],[120.1055,16.1227],[120.1058,16.1257],[120.0981,16.1358],[120.0896,16.1389],[120.0872,16.145],[120.0897,16.1442],[120.0919,16.1493],[120.0966,16.1446],[120.0966,16.1412],[120.1028,16.1406],[120.1058,16.135],[120.107,16.1411],[120.1111,16.1452],[120.1071,16.147],[120.1036,16.1465],[120.1003,16.1537],[120.0944,16.1578],[120.0922,16.1569],[120.0915,16.1599],[120.0865,16.1641],[120.0882,16.1673],[120.0875,16.1706],[120.0803,16.1623],[120.0722,16.1634],[120.0689,16.1675],[120.0695,16.1732],[120.0739,16.1758],[120.0714,16.1789],[120.0656325620678,16.172851626695756],[120.0658,16.1728],[120.0365,16.1423],[119.9948,16.095],[119.9725,16.0726]]],[[[120.1015,16.0955],[120.1039,16.0962],[120.1027,16.0982],[120.1014,16.0962],[120.1015,16.0955]]],[[[120.1236,16.1165],[120.1227,16.1193],[120.1157,16.1226],[120.1131,16.1209],[120.1126,16.1181],[120.1095,16.1184],[120.1113,16.1159],[120.1096,16.1125],[120.1104,16.1094],[120.1162,16.1078],[120.1204,16.1118],[120.1256,16.11],[120.1229,16.1139],[120.1236,16.1165]]],[[[120.116,16.1422],[120.1187,16.1435],[120.1186,16.1449],[120.1151,16.1436],[120.1145,16.1426],[120.116,16.1422]]]]},"properties":{"MUNICIPALITY":"Sual"}},
{"type":"Feature","geometry":{"type":"Polygon","coordinates":[[[120.70913152855728,16.00199286893364],[120.7256,16.0011],[120.753,15.9818],[120.75943533870203,15.974721127427763],[120.7635,15.9768],[120.7686,15.9786],[120.7719,15.978],[120.7765,15.9806],[120.7825,15.9899],[120.7837,15.9968],[120.7828,16.0023],[120.7824,16.0036],[120.7788,16.0138],[120.7685,16.0321],[120.7628,16.0476],[120.7573,16.054],[120.7553,16.0537],[120.7475,16.0527],[120.7235,16.055],[120.7202,16.0519],[120.71091757837839,16.05702467027027],[120.70872270916335,16.05010239043825],[120.7085,16.0494],[120.7094,16.0457],[120.7039,16.0349],[120.7006,16.0319],[120.6992855670103,16.02486391752577],[120.69905795401219,16.0236455185359],[120.70286,16.01752],[120.70473034482758,16.015026206896554],[120.7095,16.0131],[120.71009894179895,16.01235132275132],[120.7108,16.0121],[120.71116585365854,16.011017682926823],[120.7132,16.005],[120.70913152855728,16.00199286893364]]]},"properties":{"MUNICIPALITY":"Tayug"}},
{"type":"Feature","geometry":{"type":"Polygon","coordinates":[[[120.745,15.8539],[120.7436,15.8526],[120.7476,15.8506],[120.7575,15.8496],[120.7751,15.8333],[120.7958,15.8199],[120.8085,15.8069],[120.8195,15.7931],[120.8227,15.7928],[120.8348,15.8109],[120.8386,15.8137],[120.8568,15.8201],[120.8595,15.8228],[120.861,15.8266],[120.8592,15.8308],[120.8665,15.845],[120.8666,15.8545],[120.8688,15.8583],[120.8693,15.8658],[120.8756,15.8704],[120.8771,15.8751],[120.8778,15.888],[120.8834,15.8908],[120.8893,15.9027],[120.9032,15.9112],[120.9063,15.9191],[120.9185,15.9702],[120.9223,15.9789],[120.9166,15.9926],[120.8534,15.9644],[120.8443,15.9587],[120.8365,15.9586],[120.8322,15.9563],[120.7591,15.9463],[120.7479,15.9472],[120.7198,15.9434],[120.7198151715729,15.943268124020205],[120.7237,15.9095],[120.745,15.8539]]]},"properties":{"MUNICIPALITY":"Umingan"}},
{"type":"Feature","geometry":{"type":"Polygon","coordinates":[[[120.39348696527905,15.841487197783543],[120.3923,15.8475],[120.39024773333334,15.854982222222223],[120.3875,15.865],[120.335,15.8559],[120.309200143747,15.84641039770005],[120.30954790874526,15.846099239543722],[120.316,15.8441],[120.3097,15.8366],[120.3088,15.8318],[120.3105,15.8281],[120.3144,15.8258],[120.3234,15.8282],[120.3274,15.8271],[120.3314,15.8159],[120.3385,15.8149],[120.341,15.8121],[120.3341,15.8052],[120.3339,15.801],[120.343,15.8016],[120.352,15.7899],[120.3598,15.7868],[120.3681,15.7913],[120.3702,15.791],[120.3875,15.7765],[120.3951,15.7763],[120.3987,15.7731],[120.406,15.7781],[120.3931,15.8414],[120.39348696527905,15.841487197783543]]]},"properties":{"MUNICIPALITY":"Urbiztondo"}},
{"type":"Feature","geometry":{"type":"Polygon","coordinates":[[[120.59428727556596,16.014482045277127],[120.5716,16.0159],[120.5546,16.0057],[120.5385,16.009],[120.5376506329114,16.010467088607598],[120.5374,16.0109],[120.5292,16.0076],[120.5144,16.0103],[120.5007,16.0097],[120.4968,16.0087],[120.49629179755671,16.007665445026174],[120.4955,16.0073],[120.4956330368488,16.0063243964422],[120.49436862745098,16.00375042016806],[120.4853,15.9952],[120.4766,15.9983],[120.4745,15.9975],[120.4853,15.9901],[120.4927,15.9799],[120.4948,15.973],[120.4984,15.9656],[120.5002,15.9417],[120.5079,15.9253],[120.53534530539088,15.938686129877292],[120.54752358262782,15.943714282221336],[120.5969,15.9524],[120.6298,15.9548],[120.6313,15.9708],[120.6301,15.9789],[120.6305,16.0054],[120.6293,16.0098],[120.626,16.0125],[120.59428727556596,16.014482045277127]]]},"properties":{"MUNICIPALITY":"Urdaneta City"}},
{"type":"Feature","geometry":{"type":"Polygon","coordinates":[[[120.5303,15.8746],[120.55469451795841,15.883004833918445],[120.56656231306519,15.886622694926759],[120.56687224264707,15.886469852941177],[120.56698036608864,15.886416531791907],[120.57059791044777,15.884632537313431],[120.57274598214286,15.883573214285715],[120.5733,15.8833],[120.57404266211604,15.883416040955632],[120.57715671641792,15.883902611940298],[120.5797,15.8843],[120.58012912822444,15.884733138768594],[120.58596283382789,15.890621364985156],[120.58611752447055,15.890777501334757],[120.58612110565745,15.8907811159907],[120.5862566516578,15.890917928776101],[120.59399500542888,15.896743431053205],[120.59711399387128,15.898169254341159],[120.59780854224698,15.89838913649025],[120.6084,15.9007],[120.61202662742382,15.902890339335178],[120.61789888406697,15.906436949783025],[120.6185,15.9068],[120.61921404958676,15.907593388429737],[120.6221,15.9108],[120.61918281938325,15.92114273127753],[120.61980102739726,15.923203424657533],[120.62188005319149,15.92466436170213],[120.6234759202454,15.925080674846626],[120.6263383126935,15.925023993808049],[120.63165491493383,15.924918714555766],[120.6326,15.9249],[120.63371774193548,15.927135483870964],[120.636433446232,15.930053852667228],[120.635,15.9294],[120.6394,15.9385],[120.6302,15.9495],[120.6298,15.9548],[120.5969,15.9524],[120.54752358262782,15.943714282221336],[120.53534530539088,15.938686129877292],[120.5079,15.9253],[120.51468864599222,15.911256312489378],[120.5189,15.9047],[120.52997124795806,15.875468020742314],[120.5303,15.8746]]]},"properties":{"MUNICIPALITY":"Villasis"}}
]}